[{"OBJECT_NAME":"YAOGAN-30 08A","OBJECT_ID":"2020-076A","EPOCH":"2026-03-09T23:16:56.591616","MEAN_MOTION":15.02157833,"ECCENTRICITY":0.00011165,"INCLINATION":34.995,"RA_OF_ASC_NODE":335.7414,"ARG_OF_PERICENTER":272.5686,"MEAN_ANOMALY":87.4894,"EPHEMERIS_TYPE":0,"CLASSIFICATION_TYPE":"U","NORAD_CAT_ID":46807,"ELEMENT_SET_NO":999,"REV_AT_EPOCH":29318,"BSTAR":0.00031078635,"MEAN_MOTION_DOT":4.146e-5,"MEAN_MOTION_DDOT":0},{"OBJECT_NAME":"STARLINK-6177","OBJECT_ID":"2023-083E","EPOCH":"2026-03-09T01:20:27.107520","MEAN_MOTION":15.02536257,"ECCENTRICITY":0.00012897,"INCLINATION":43.0046,"RA_OF_ASC_NODE":85.3458,"ARG_OF_PERICENTER":260.5075,"MEAN_ANOMALY":99.5622,"EPHEMERIS_TYPE":0,"CLASSIFICATION_TYPE":"U","NORAD_CAT_ID":56880,"ELEMENT_SET_NO":999,"REV_AT_EPOCH":15157,"BSTAR":0.00022186577,"MEAN_MOTION_DOT":2.795e-5,"MEAN_MOTION_DDOT":0}]
